QIANFAN-33              
1 61566U 24185Q   25325.05111382  .00000497  00000+0  34961-3 0  9997
2 61566  88.9795  81.2212 0008000  47.3013 312.8836 13.96527527 66138
QIANFAN-34              
1 61567U 24185R   25325.03407510  .00000539  00000+0  34287-3 0  9995
2 61567  88.9771  80.8159 0007199  56.4547 303.7320 14.02277876 66313
QIANFAN-35              
1 61568U 24185S   25325.04401433  .00000883  00000+0  35090-3 0  9990
2 61568  88.9799  79.4215 0006560  16.1447 343.9956 14.27913407 67084
QIANFAN-36              
1 61569U 24185T   25325.04060215  .00000213  00000+0  28926-3 0  9997
2 61569  88.9777  83.3008 0007768 105.1097 255.0917 13.55577748 64986
QIANFAN-37              
1 62238U 24232B   25325.06942963  .00000192  00000+0  27843-3 0  9998
2 62238  89.0039  43.5136 0002402 120.8594 239.2793 13.50985069 96243
QIANFAN-38              
1 62239U 24232C   25325.01999955  .00000183  00000+0  26469-3 0  9990
2 62239  89.0046  43.4329 0012921 253.9405 106.0324 13.50974246 96292
QIANFAN-39              
1 62240U 24232D   25325.08226196  .00000645  00000+0  26733-3 0  9996
2 62240  89.0036  39.7832 0017761 144.3592 215.8791 14.25360373 98301
QIANFAN-40              
1 62241U 24232E   25325.05291178  .00000175  00000+0  25279-3 0  9998
2 62241  89.0073  43.0081 0011814 262.5876  97.3933 13.50973894 96661
